ONEWEB-0228             
1 48780U 21045P   24058.94755600  .00000003  00000+0 -24871-4 0  9993
2 48780  87.8945  66.4096 0001981  86.1896 273.9461 13.15548541133857
